{
  "type": "FeatureCollection",
  "features": [
    {
      "type": "Feature",
      "properties": {
        "norad_id": 67102,
        "name": "STARLINK-36255",
        "group": "last-30-days",
        "lat": 35.98477939657382,
        "lon": 20.174984188789345,
        "alt_km": 295.1757350571361,
        "timestamp": "2025-12-23T09:49:05.800913+00:00",
        "meta_object_name": "STARLINK-36255",
        "meta_object_id": "2025-299A",
        "meta_epoch": "2025-12-22T22:00:03.000096",
        "meta_mean_motion": 15.92937193,
        "meta_eccentricity": 0.00014877,
        "meta_inclination": 42.9978,
        "meta_ra_of_asc_node": 254.4369,
        "meta_arg_of_pericenter": 266.0857,
        "meta_mean_anomaly": 268.9822,
        "meta_ephemeris_type": 0,
        "meta_classification_type": "U",
        "meta_norad_cat_id": 67102,
        "meta_element_set_no": 999,
        "meta_rev_at_epoch": 244,
        "meta_bstar": -0.005907369,
        "meta_mean_motion_dot": -0.02117976,
        "meta_mean_motion_ddot": 0.0012144117,
        "tle_line1": "1 67102U 25299A   25356.91670139 -.02117976  12144-2 -59074-2 0  9996",
        "tle_line2": "2 67102  42.9978 254.4369 0001487 266.0857 268.9822 15.92937193  2440"
      },
      "geometry": {
        "type": "Point",
        "coordinates": [
          20.174984188789345,
          35.98477939657382
        ]
      }
    },
    {
      "type": "Feature",
      "properties": {
        "norad_id": 67103,
        "name": "STARLINK-36256",
        "group": "last-30-days",
        "lat": 35.47238331677971,
        "lon": 21.48530236769697,
        "alt_km": 295.22725169651676,
        "timestamp": "2025-12-23T09:49:05.800926+00:00",
        "meta_object_name": "STARLINK-36256",
        "meta_object_id": "2025-299B",
        "meta_epoch": "2025-12-22T22:00:03.000096",
        "meta_mean_motion": 15.9291666,
        "meta_eccentricity": 0.00015458,
        "meta_inclination": 42.9978,
        "meta_ra_of_asc_node": 254.4341,
        "meta_arg_of_pericenter": 267.3799,
        "meta_mean_anomaly": 268.8672,
        "meta_ephemeris_type": 0,
        "meta_classification_type": "U",
        "meta_norad_cat_id": 67103,
        "meta_element_set_no": 999,
        "meta_rev_at_epoch": 244,
        "meta_bstar": -0.0057825658,
        "meta_mean_motion_dot": -0.02071576,
        "meta_mean_motion_ddot": 0.0011645625,
        "tle_line1": "1 67103U 25299B   25356.91670139 -.02071576  11646-2 -57826-2 0  9991",
        "tle_line2": "2 67103  42.9978 254.4341 0001545 267.3799 268.8672 15.92916660  2443"
      },
      "geometry": {
        "type": "Point",
        "coordinates": [
          21.48530236769697,
          35.47238331677971
        ]
      }
    },
    {
      "type": "Feature",
      "properties": {
        "norad_id": 67104,
        "name": "STARLINK-36258",
        "group": "last-30-days",
        "lat": 34.857229905147676,
        "lon": 22.991474121425096,
        "alt_km": 295.45923425898854,
        "timestamp": "2025-12-23T09:49:05.800938+00:00",
        "meta_object_name": "STARLINK-36258",
        "meta_object_id": "2025-299C",
        "meta_epoch": "2025-12-22T22:00:03.000096",
        "meta_mean_motion": 15.9297716,
        "meta_eccentricity": 0.00018974,
        "meta_inclination": 42.9978,
        "meta_ra_of_asc_node": 254.4306,
        "meta_arg_of_pericenter": 266.3074,
        "meta_mean_anomaly": 271.2532,
        "meta_ephemeris_type": 0,
        "meta_classification_type": "U",
        "meta_norad_cat_id": 67104,
        "meta_element_set_no": 999,
        "meta_rev_at_epoch": 244,
        "meta_bstar": -0.0059000073,
        "meta_mean_motion_dot": -0.02119911,
        "meta_mean_motion_ddot": 0.0012170049,
        "tle_line1": "1 67104U 25299C   25356.91670139 -.02119911  12170-2 -59000-2 0  9997",
        "tle_line2": "2 67104  42.9978 254.4306 0001897 266.3074 271.2532 15.92977160  2445"
      },
      "geometry": {
        "type": "Point",
        "coordinates": [
          22.991474121425096,
          34.857229905147676
        ]
      }
    },
    {
      "type": "Feature",
      "properties": {
        "norad_id": 67105,
        "name": "STARLINK-36261",
        "group": "last-30-days",
        "lat": 34.354998503299704,
        "lon": 24.172741309809947,
        "alt_km": 295.344495892291,
        "timestamp": "2025-12-23T09:49:05.800949+00:00",
        "meta_object_name": "STARLINK-36261",
        "meta_object_id": "2025-299D",
        "meta_epoch": "2025-12-22T22:00:03.000096",
        "meta_mean_motion": 15.93003801,
        "meta_eccentricity": 0.00017479,
        "meta_inclination": 42.9978,
        "meta_ra_of_asc_node": 254.4278,
        "meta_arg_of_pericenter": 263.8677,
        "meta_mean_anomaly": 274.7498,
        "meta_ephemeris_type": 0,
        "meta_classification_type": "U",
        "meta_norad_cat_id": 67105,
        "meta_element_set_no": 999,
        "meta_rev_at_epoch": 244,
        "meta_bstar": -0.0059210542,
        "meta_mean_motion_dot": -0.02130276,
        "meta_mean_motion_ddot": 0.0012285932,
        "tle_line1": "1 67105U 25299D   25356.91670139 -.02130276  12286-2 -59211-2 0  9997",
        "tle_line2": "2 67105  42.9978 254.4278 0001747 263.8677 274.7498 15.93003801  2441"
      },
      "geometry": {
        "type": "Point",
        "coordinates": [
          24.172741309809947,
          34.354998503299704
        ]
      }
    },
    {
      "type": "Feature",
      "properties": {
        "norad_id": 67106,
        "name": "STARLINK-36259",
        "group": "last-30-days",
        "lat": 32.840179634714765,
        "lon": 27.510243718106306,
        "alt_km": 295.3705042540878,
        "timestamp": "2025-12-23T09:49:05.800958+00:00",
        "meta_object_name": "STARLINK-36259",
        "meta_object_id": "2025-299E",
        "meta_epoch": "2025-12-22T22:00:03.000096",
        "meta_mean_motion": 15.93016582,
        "meta_eccentricity": 0.00014198,
        "meta_inclination": 42.9978,
        "meta_ra_of_asc_node": 254.4201,
        "meta_arg_of_pericenter": 267.2593,
        "meta_mean_anomaly": 274.4949,
        "meta_ephemeris_type": 0,
        "meta_classification_type": "U",
        "meta_norad_cat_id": 67106,
        "meta_element_set_no": 999,
        "meta_rev_at_epoch": 244,
        "meta_bstar": -0.0058996966,
        "meta_mean_motion_dot": -0.02123988,
        "meta_mean_motion_ddot": 0.0012219198,
        "tle_line1": "1 67106U 25299E   25356.91670139 -.02123988  12219-2 -58997-2 0  9996",
        "tle_line2": "2 67106  42.9978 254.4201 0001419 267.2593 274.4949 15.93016582  2447"
      },
      "geometry": {
        "type": "Point",
        "coordinates": [
          27.510243718106306,
          32.840179634714765
        ]
      }
    },
    {
      "type": "Feature",
      "properties": {
        "norad_id": 67107,
        "name": "STARLINK-36196",
        "group": "last-30-days",
        "lat": 33.65800020463414,
        "lon": 25.747924722048403,
        "alt_km": 295.3093836452954,
        "timestamp": "2025-12-23T09:49:05.800969+00:00",
        "meta_object_name": "STARLINK-36196",
        "meta_object_id": "2025-299F",
        "meta_epoch": "2025-12-22T22:00:03.000096",
        "meta_mean_motion": 15.93012974,
        "meta_eccentricity": 0.00016592,
        "meta_inclination": 42.9978,
        "meta_ra_of_asc_node": 254.4244,
        "meta_arg_of_pericenter": 262.2506,
        "meta_mean_anomaly": 277.8267,
        "meta_ephemeris_type": 0,
        "meta_classification_type": "U",
        "meta_norad_cat_id": 67107,
        "meta_element_set_no": 999,
        "meta_rev_at_epoch": 244,
        "meta_bstar": -0.0059004756,
        "meta_mean_motion_dot": -0.02123943,
        "meta_mean_motion_ddot": 0.0012218265,
        "tle_line1": "1 67107U 25299F   25356.91670139 -.02123943  12218-2 -59005-2 0  9998",
        "tle_line2": "2 67107  42.9978 254.4244 0001659 262.2506 277.8267 15.93012974  2441"
      },
      "geometry": {
        "type": "Point",
        "coordinates": [
          25.747924722048403,
          33.65800020463414
        ]
      }
    },
    {
      "type": "Feature",
      "properties": {
        "norad_id": 67108,
        "name": "STARLINK-36208",
        "group": "last-30-days",
        "lat": 32.00884276470233,
        "lon": 29.218369157628057,
        "alt_km": 295.5363058547018,
        "timestamp": "2025-12-23T09:49:05.800981+00:00",
        "meta_object_name": "STARLINK-36208",
        "meta_object_id": "2025-299G",
        "meta_epoch": "2025-12-22T22:00:03.000096",
        "meta_mean_motion": 15.93023606,
        "meta_eccentricity": 0.00015236,
        "meta_inclination": 42.998,
        "meta_ra_of_asc_node": 254.4158,
        "meta_arg_of_pericenter": 268.3769,
        "meta_mean_anomaly": 275.0303,
        "meta_ephemeris_type": 0,
        "meta_classification_type": "U",
        "meta_norad_cat_id": 67108,
        "meta_element_set_no": 999,
        "meta_rev_at_epoch": 244,
        "meta_bstar": -0.0058944015,
        "meta_mean_motion_dot": -0.02122911,
        "meta_mean_motion_ddot": 0.0012208396,
        "tle_line1": "1 67108U 25299G   25356.91670139 -.02122911  12208-2 -58944-2 0  9993",
        "tle_line2": "2 67108  42.9980 254.4158 0001523 268.3769 275.0303 15.93023606  2442"
      },
      "geometry": {
        "type": "Point",
        "coordinates": [
          29.218369157628057,
          32.00884276470233
        ]
      }
    }
  ]
}